[{"OBJECT_NAME":"STARLINK-3838","OBJECT_ID":"2022-045X","EPOCH":"2026-03-09T16:26:45.575808","MEAN_MOTION":15.0884389,"ECCENTRICITY":0.00011239,"INCLINATION":53.2167,"RA_OF_ASC_NODE":199.1415,"ARG_OF_PERICENTER":84.4576,"MEAN_ANOMALY":275.6545,"EPHEMERIS_TYPE":0,"CLASSIFICATION_TYPE":"U","NORAD_CAT_ID":52352,"ELEMENT_SET_NO":999,"REV_AT_EPOCH":21578,"BSTAR":2.0286512e-5,"MEAN_MOTION_DOT":3.5e-7,"MEAN_MOTION_DDOT":0},{"OBJECT_NAME":"TITAN 3C TRANSTAGE DEB","OBJECT_ID":"1965-082EA","EPOCH":"2026-03-09T23:10:17.723424","MEAN_MOTION":15.08375165,"ECCENTRICITY":0.00122709,"INCLINATION":32.3951,"RA_OF_ASC_NODE":291.2548,"ARG_OF_PERICENTER":351.0252,"MEAN_ANOMALY":9.0191,"EPHEMERIS_TYPE":0,"CLASSIFICATION_TYPE":"U","NORAD_CAT_ID":1835,"ELEMENT_SET_NO":999,"REV_AT_EPOCH":23237,"BSTAR":0.00035954995,"MEAN_MOTION_DOT":5.778e-5,"MEAN_MOTION_DDOT":0}]
